{
  "type": "FeatureCollection",
  "features": [
    {
      "type": "Feature",
      "properties": {
        "norad_id": 67039,
        "name": "STARLINK-35705",
        "group": "last-30-days",
        "lat": 17.321453867110584,
        "lon": 117.08104092556147,
        "alt_km": 370.0349337336229,
        "timestamp": "2025-12-26T14:28:46.398727+00:00",
        "meta_object_name": "STARLINK-35705",
        "meta_object_id": "2025-294K",
        "meta_epoch": "2025-12-26T06:00:02.999808",
        "meta_mean_motion": 15.66787131,
        "meta_eccentricity": 0.00012241,
        "meta_inclination": 42.9994,
        "meta_ra_of_asc_node": 99.6423,
        "meta_arg_of_pericenter": 272.2113,
        "meta_mean_anomaly": 279.6282,
        "meta_ephemeris_type": 0,
        "meta_classification_type": "U",
        "meta_norad_cat_id": 67039,
        "meta_element_set_no": 999,
        "meta_rev_at_epoch": 228,
        "meta_bstar": -0.020114319,
        "meta_mean_motion_dot": -0.01931045,
        "meta_mean_motion_ddot": 0,
        "tle_line1": "1 67039U 25294K   25360.25003472 -.01931045  00000+0 -20114-1 0  9999",
        "tle_line2": "2 67039  42.9994  99.6423 0001224 272.2113 279.6282 15.66787131  2287"
      },
      "geometry": {
        "type": "Point",
        "coordinates": [
          117.08104092556147,
          17.321453867110584
        ]
      }
    },
    {
      "type": "Feature",
      "properties": {
        "norad_id": 67040,
        "name": "STARLINK-35786",
        "group": "last-30-days",
        "lat": 16.023894752953122,
        "lon": 115.48438160959013,
        "alt_km": 370.22943816691895,
        "timestamp": "2025-12-26T14:28:46.398738+00:00",
        "meta_object_name": "STARLINK-35786",
        "meta_object_id": "2025-294L",
        "meta_epoch": "2025-12-26T06:00:02.999808",
        "meta_mean_motion": 15.66797124,
        "meta_eccentricity": 0.00011913,
        "meta_inclination": 42.9996,
        "meta_ra_of_asc_node": 99.6484,
        "meta_arg_of_pericenter": 269.3663,
        "meta_mean_anomaly": 280.4538,
        "meta_ephemeris_type": 0,
        "meta_classification_type": "U",
        "meta_norad_cat_id": 67040,
        "meta_element_set_no": 999,
        "meta_rev_at_epoch": 228,
        "meta_bstar": -0.02013979,
        "meta_mean_motion_dot": -0.01933881,
        "meta_mean_motion_ddot": 0,
        "tle_line1": "1 67040U 25294L   25360.25003472 -.01933881  00000+0 -20140-1 0  9990",
        "tle_line2": "2 67040  42.9996  99.6484 0001191 269.3663 280.4538 15.66797124  2285"
      },
      "geometry": {
        "type": "Point",
        "coordinates": [
          115.48438160959013,
          16.023894752953122
        ]
      }
    },
    {
      "type": "Feature",
      "properties": {
        "norad_id": 67041,
        "name": "STARLINK-35765",
        "group": "last-30-days",
        "lat": 18.584693805916274,
        "lon": 118.6740447629078,
        "alt_km": 369.9603383679714,
        "timestamp": "2025-12-26T14:28:46.398747+00:00",
        "meta_object_name": "STARLINK-35765",
        "meta_object_id": "2025-294M",
        "meta_epoch": "2025-12-26T06:00:02.999808",
        "meta_mean_motion": 15.6678002,
        "meta_eccentricity": 0.00012294,
        "meta_inclination": 42.9998,
        "meta_ra_of_asc_node": 99.6377,
        "meta_arg_of_pericenter": 267.86,
        "meta_mean_anomaly": 285.9624,
        "meta_ephemeris_type": 0,
        "meta_classification_type": "U",
        "meta_norad_cat_id": 67041,
        "meta_element_set_no": 999,
        "meta_rev_at_epoch": 228,
        "meta_bstar": -0.020084241,
        "meta_mean_motion_dot": -0.01927999,
        "meta_mean_motion_ddot": 0,
        "tle_line1": "1 67041U 25294M   25360.25003472 -.01927999  00000+0 -20084-1 0  9991",
        "tle_line2": "2 67041  42.9998  99.6377 0001229 267.8600 285.9624 15.66780020  2288"
      },
      "geometry": {
        "type": "Point",
        "coordinates": [
          118.6740447629078,
          18.584693805916274
        ]
      }
    },
    {
      "type": "Feature",
      "properties": {
        "norad_id": 67042,
        "name": "STARLINK-35773",
        "group": "last-30-days",
        "lat": 19.88480528909536,
        "lon": 120.35707231289452,
        "alt_km": 369.7932688736637,
        "timestamp": "2025-12-26T14:28:46.398757+00:00",
        "meta_object_name": "STARLINK-35773",
        "meta_object_id": "2025-294N",
        "meta_epoch": "2025-12-26T06:00:02.999808",
        "meta_mean_motion": 15.66772379,
        "meta_eccentricity": 0.00013253,
        "meta_inclination": 42.9998,
        "meta_ra_of_asc_node": 99.6326,
        "meta_arg_of_pericenter": 270.8974,
        "meta_mean_anomaly": 284.9908,
        "meta_ephemeris_type": 0,
        "meta_classification_type": "U",
        "meta_norad_cat_id": 67042,
        "meta_element_set_no": 999,
        "meta_rev_at_epoch": 247,
        "meta_bstar": -0.020134276,
        "meta_mean_motion_dot": -0.01931778,
        "meta_mean_motion_ddot": 0,
        "tle_line1": "1 67042U 25294N   25360.25003472 -.01931778  00000+0 -20134-1 0  9998",
        "tle_line2": "2 67042  42.9998  99.6326 0001325 270.8974 284.9908 15.66772379  2471"
      },
      "geometry": {
        "type": "Point",
        "coordinates": [
          120.35707231289452,
          19.88480528909536
        ]
      }
    },
    {
      "type": "Feature",
      "properties": {
        "norad_id": 67043,
        "name": "STARLINK-35901",
        "group": "last-30-days",
        "lat": 21.1627480098984,
        "lon": 122.06020300002778,
        "alt_km": 369.62067590062725,
        "timestamp": "2025-12-26T14:28:46.398769+00:00",
        "meta_object_name": "STARLINK-35901",
        "meta_object_id": "2025-294P",
        "meta_epoch": "2025-12-26T06:00:02.999808",
        "meta_mean_motion": 15.66762856,
        "meta_eccentricity": 0.00012212,
        "meta_inclination": 42.9996,
        "meta_ra_of_asc_node": 99.6278,
        "meta_arg_of_pericenter": 270.495,
        "meta_mean_anomaly": 287.4528,
        "meta_ephemeris_type": 0,
        "meta_classification_type": "U",
        "meta_norad_cat_id": 67043,
        "meta_element_set_no": 999,
        "meta_rev_at_epoch": 247,
        "meta_bstar": -0.020152675,
        "meta_mean_motion_dot": -0.01932597,
        "meta_mean_motion_ddot": 0,
        "tle_line1": "1 67043U 25294P   25360.25003472 -.01932597  00000+0 -20153-1 0  9990",
        "tle_line2": "2 67043  42.9996  99.6278 0001221 270.4950 287.4528 15.66762856  2476"
      },
      "geometry": {
        "type": "Point",
        "coordinates": [
          122.06020300002778,
          21.1627480098984
        ]
      }
    },
    {
      "type": "Feature",
      "properties": {
        "norad_id": 67044,
        "name": "STARLINK-35884",
        "group": "last-30-days",
        "lat": 22.407242859759005,
        "lon": 123.76939831343213,
        "alt_km": 369.5220908428837,
        "timestamp": "2025-12-26T14:28:46.398780+00:00",
        "meta_object_name": "STARLINK-35884",
        "meta_object_id": "2025-294Q",
        "meta_epoch": "2025-12-26T06:00:02.999808",
        "meta_mean_motion": 15.66754773,
        "meta_eccentricity": 0.00012769,
        "meta_inclination": 43,
        "meta_ra_of_asc_node": 99.6225,
        "meta_arg_of_pericenter": 268.8625,
        "meta_mean_anomaly": 291.114,
        "meta_ephemeris_type": 0,
        "meta_classification_type": "U",
        "meta_norad_cat_id": 67044,
        "meta_element_set_no": 999,
        "meta_rev_at_epoch": 247,
        "meta_bstar": -0.020146859,
        "meta_mean_motion_dot": -0.01931578,
        "meta_mean_motion_ddot": 0,
        "tle_line1": "1 67044U 25294Q   25360.25003472 -.01931578  00000+0 -20147-1 0  9992",
        "tle_line2": "2 67044  43.0000  99.6225 0001276 268.8625 291.1140 15.66754773  2478"
      },
      "geometry": {
        "type": "Point",
        "coordinates": [
          123.76939831343213,
          22.407242859759005
        ]
      }
    },
    {
      "type": "Feature",
      "properties": {
        "norad_id": 67045,
        "name": "STARLINK-35891",
        "group": "last-30-days",
        "lat": 23.734129522271996,
        "lon": 125.65625961764053,
        "alt_km": 369.3858814132309,
        "timestamp": "2025-12-26T14:28:46.398790+00:00",
        "meta_object_name": "STARLINK-35891",
        "meta_object_id": "2025-294R",
        "meta_epoch": "2025-12-26T06:00:02.999808",
        "meta_mean_motion": 15.66734184,
        "meta_eccentricity": 0.00012225,
        "meta_inclination": 42.9997,
        "meta_ra_of_asc_node": 99.6172,
        "meta_arg_of_pericenter": 268.4006,
        "meta_mean_anomaly": 293.7903,
        "meta_ephemeris_type": 0,
        "meta_classification_type": "U",
        "meta_norad_cat_id": 67045,
        "meta_element_set_no": 999,
        "meta_rev_at_epoch": 239,
        "meta_bstar": -0.020173988,
        "meta_mean_motion_dot": -0.01932397,
        "meta_mean_motion_ddot": 0,
        "tle_line1": "1 67045U 25294R   25360.25003472 -.01932397  00000+0 -20174-1 0  9993",
        "tle_line2": "2 67045  42.9997  99.6172 0001222 268.4006 293.7903 15.66734184  2393"
      },
      "geometry": {
        "type": "Point",
        "coordinates": [
          125.65625961764053,
          23.734129522271996
        ]
      }
    }
  ]
}